STARLINK-1692           
1 46542U 20070L   23328.28148346  .00003183  00000+0  23249-3 0  9991
2 46542  53.0538 331.4001 0001418  76.3905 283.7242 15.06393426173450
STARLINK-1693           
1 46543U 20070M   23328.99654597  .00003389  00000+0  24635-3 0  9998
2 46543  53.0539 328.1956 0001548  76.4488 283.6673 15.06396004173569
STARLINK-1694           
1 46544U 20070N   23329.12508854 -.00000312  00000+0 -20156-5 0  9990
2 46544  53.0545 312.6171 0001778 113.9284 246.1892 15.06397430173785
STARLINK-1696           
1 46545U 20070P   23329.16609686  .00001241  00000+0  10220-3 0  9999
2 46545  53.0554 327.4291 0001823 120.7482 239.3687 15.06395222173570
STARLINK-1697           
1 46546U 20070Q   23329.15135320  .00000398  00000+0  45623-4 0  9996
2 46546  53.0537 327.5004 0001189  88.6813 271.4312 15.06392870173275
STARLINK-1698           
1 46547U 20070R   23328.98086388  .00007738  00000+0  53791-3 0  9995
2 46547  53.0548 328.2551 0001519  87.5019 272.6144 15.06390698173560
STARLINK-1699           
1 46548U 20070S   23328.99286387  .00000921  00000+0  80774-4 0  9997
2 46548  53.0555 328.2100 0001671  80.2829 279.8348 15.06389094173560
STARLINK-1700           
1 46549U 20070T   23329.15503786  .00000580  00000+0  57834-4 0  9994
2 46549  53.0557 327.4802 0001255 115.1538 244.9581 15.06401535173271
STARLINK-1701           
1 46550U 20070U   23329.14031088  .00005435  00000+0  38356-3 0  9997
2 46550  53.0532 327.5485 0001427  94.7298 265.3853 15.06395099173580
STARLINK-1664           
1 46553U 20070X   23329.12831066  .00001170  00000+0  97438-4 0  9991
2 46553  53.0547 297.6105 0001415 105.2033 254.9113 15.06389017173998
STARLINK-1671           
1 46554U 20070Y   23329.11402607  .00001781  00000+0  13845-3 0  9993
2 46554  53.0558 312.6545 0002113 127.0759 233.0424 15.06400102173789
STARLINK-1676           
1 46556U 20070AA  23329.17346809  .00000538  00000+0  55061-4 0  9998
2 46556  53.0548 327.3894 0002396 133.0905 227.0285 15.06393998173594
STARLINK-1679           
1 46557U 20070AB  23329.15723812  .00002161  00000+0  16393-3 0  9998
2 46557  53.0542 311.8373 0002204 126.6159 233.5033 15.06396397173809
STARLINK-1680           
1 46558U 20070AC  23328.89286894 -.00005171  00000+0 -32862-3 0  9998
2 46558  53.0538 313.6574 0001401  91.1652 268.9497 15.06385395173712
STARLINK-1681           
1 46559U 20070AD  23329.14581288  .00000836  00000+0  75064-4 0  9996
2 46559  53.0535 297.5080 0001519  90.7372 269.3791 15.06383681173994
STARLINK-1709           
1 46561U 20070AF  23329.12415952  .00002491  00000+0  18608-3 0  9990
2 46561  53.0553 312.6449 0001798  91.3426 268.7769 15.06396651173787
STARLINK-1714           
1 46562U 20070AG  23329.12276461 -.00000748  00000+0 -31347-4 0  9992
2 46562  53.0536 307.6137 0001623 109.5229 250.5935 15.06386241173549
