[{"OBJECT_NAME":"STARLINK-1692","OBJECT_ID":"2020-070L","EPOCH":"2023-11-24T06:45:20.170944","MEAN_MOTION":15.06393426,"ECCENTRICITY":0.0001418,"INCLINATION":53.0538,"RA_OF_ASC_NODE":331.4001,"ARG_OF_PERICENTER":76.3905,"MEAN_ANOMALY":283.7242,"EPHEMERIS_TYPE":0,"CLASSIFICATION_TYPE":"U","NORAD_CAT_ID":46542,"ELEMENT_SET_NO":999,"REV_AT_EPOCH":17345,"BSTAR":0.00023249,"MEAN_MOTION_DOT":3.183e-5,"MEAN_MOTION_DDOT":0},{"OBJECT_NAME":"STARLINK-1693","OBJECT_ID":"2020-070M","EPOCH":"2023-11-24T23:55:01.571808","MEAN_MOTION":15.06396004,"ECCENTRICITY":0.0001548,"INCLINATION":53.0539,"RA_OF_ASC_NODE":328.1956,"ARG_OF_PERICENTER":76.4488,"MEAN_ANOMALY":283.6673,"EPHEMERIS_TYPE":0,"CLASSIFICATION_TYPE":"U","NORAD_CAT_ID":46543,"ELEMENT_SET_NO":999,"REV_AT_EPOCH":17356,"BSTAR":0.00024635,"MEAN_MOTION_DOT":3.389e-5,"MEAN_MOTION_DDOT":0},{"OBJECT_NAME":"STARLINK-1694","OBJECT_ID":"2020-070N","EPOCH":"2023-11-25T03:00:07.649856","MEAN_MOTION":15.0639743,"ECCENTRICITY":0.0001778,"INCLINATION":53.0545,"RA_OF_ASC_NODE":312.6171,"ARG_OF_PERICENTER":113.9284,"MEAN_ANOMALY":246.1892,"EPHEMERIS_TYPE":0,"CLASSIFICATION_TYPE":"U","NORAD_CAT_ID":46544,"ELEMENT_SET_NO":999,"REV_AT_EPOCH":17378,"BSTAR":-2.0156e-6,"MEAN_MOTION_DOT":-3.12e-6,"MEAN_MOTION_DDOT":0},{"OBJECT_NAME":"STARLINK-1696","OBJECT_ID":"2020-070P","EPOCH":"2023-11-25T03:59:10.768704","MEAN_MOTION":15.06395222,"ECCENTRICITY":0.0001823,"INCLINATION":53.0554,"RA_OF_ASC_NODE":327.4291,"ARG_OF_PERICENTER":120.7482,"MEAN_ANOMALY":239.3687,"EPHEMERIS_TYPE":0,"CLASSIFICATION_TYPE":"U","NORAD_CAT_ID":46545,"ELEMENT_SET_NO":999,"REV_AT_EPOCH":17357,"BSTAR":0.0001022,"MEAN_MOTION_DOT":1.241e-5,"MEAN_MOTION_DDOT":0},{"OBJECT_NAME":"STARLINK-1697","OBJECT_ID":"2020-070Q","EPOCH":"2023-11-25T03:37:56.916480","MEAN_MOTION":15.0639287,"ECCENTRICITY":0.0001189,"INCLINATION":53.0537,"RA_OF_ASC_NODE":327.5004,"ARG_OF_PERICENTER":88.6813,"MEAN_ANOMALY":271.4312,"EPHEMERIS_TYPE":0,"CLASSIFICATION_TYPE":"U","NORAD_CAT_ID":46546,"ELEMENT_SET_NO":999,"REV_AT_EPOCH":17327,"BSTAR":4.5623e-5,"MEAN_MOTION_DOT":3.98e-6,"MEAN_MOTION_DDOT":0},{"OBJECT_NAME":"STARLINK-1698","OBJECT_ID":"2020-070R","EPOCH":"2023-11-24T23:32:26.639232","MEAN_MOTION":15.06390698,"ECCENTRICITY":0.0001519,"INCLINATION":53.0548,"RA_OF_ASC_NODE":328.2551,"ARG_OF_PERICENTER":87.5019,"MEAN_ANOMALY":272.6144,"EPHEMERIS_TYPE":0,"CLASSIFICATION_TYPE":"U","NORAD_CAT_ID":46547,"ELEMENT_SET_NO":999,"REV_AT_EPOCH":17356,"BSTAR":0.00053791,"MEAN_MOTION_DOT":7.738e-5,"MEAN_MOTION_DDOT":0},{"OBJECT_NAME":"STARLINK-1699","OBJECT_ID":"2020-070S","EPOCH":"2023-11-24T23:49:43.438368","MEAN_MOTION":15.06389094,"ECCENTRICITY":0.0001671,"INCLINATION":53.0555,"RA_OF_ASC_NODE":328.21,"ARG_OF_PERICENTER":80.2829,"MEAN_ANOMALY":279.8348,"EPHEMERIS_TYPE":0,"CLASSIFICATION_TYPE":"U","NORAD_CAT_ID":46548,"ELEMENT_SET_NO":999,"REV_AT_EPOCH":17356,"BSTAR":8.0774e-5,"MEAN_MOTION_DOT":9.21e-6,"MEAN_MOTION_DDOT":0},{"OBJECT_NAME":"STARLINK-1700","OBJECT_ID":"2020-070T","EPOCH":"2023-11-25T03:43:15.271104","MEAN_MOTION":15.06401535,"ECCENTRICITY":0.0001255,"INCLINATION":53.0557,"RA_OF_ASC_NODE":327.4802,"ARG_OF_PERICENTER":115.1538,"MEAN_ANOMALY":244.9581,"EPHEMERIS_TYPE":0,"CLASSIFICATION_TYPE":"U","NORAD_CAT_ID":46549,"ELEMENT_SET_NO":999,"REV_AT_EPOCH":17327,"BSTAR":5.7834e-5,"MEAN_MOTION_DOT":5.8e-6,"MEAN_MOTION_DDOT":0},{"OBJECT_NAME":"STARLINK-1701","OBJECT_ID":"2020-070U","EPOCH":"2023-11-25T03:22:02.860032","MEAN_MOTION":15.06395099,"ECCENTRICITY":0.0001427,"INCLINATION":53.0532,"RA_OF_ASC_NODE":327.5485,"ARG_OF_PERICENTER":94.7298,"MEAN_ANOMALY":265.3853,"EPHEMERIS_TYPE":0,"CLASSIFICATION_TYPE":"U","NORAD_CAT_ID":46550,"ELEMENT_SET_NO":999,"REV_AT_EPOCH":17358,"BSTAR":0.00038356,"MEAN_MOTION_DOT":5.435e-5,"MEAN_MOTION_DDOT":0},{"OBJECT_NAME":"STARLINK-1664","OBJECT_ID":"2020-070X","EPOCH":"2023-11-25T03:04:46.041024","MEAN_MOTION":15.06389017,"ECCENTRICITY":0.0001415,"INCLINATION":53.0547,"RA_OF_ASC_NODE":297.6105,"ARG_OF_PERICENTER":105.2033,"MEAN_ANOMALY":254.9113,"EPHEMERIS_TYPE":0,"CLASSIFICATION_TYPE":"U","NORAD_CAT_ID":46553,"ELEMENT_SET_NO":999,"REV_AT_EPOCH":17399,"BSTAR":9.7438e-5,"MEAN_MOTION_DOT":1.17e-5,"MEAN_MOTION_DDOT":0},{"OBJECT_NAME":"STARLINK-1671","OBJECT_ID":"2020-070Y","EPOCH":"2023-11-25T02:44:11.852448","MEAN_MOTION":15.06400102,"ECCENTRICITY":0.0002113,"INCLINATION":53.0558,"RA_OF_ASC_NODE":312.6545,"ARG_OF_PERICENTER":127.0759,"MEAN_ANOMALY":233.0424,"EPHEMERIS_TYPE":0,"CLASSIFICATION_TYPE":"U","NORAD_CAT_ID":46554,"ELEMENT_SET_NO":999,"REV_AT_EPOCH":17378,"BSTAR":0.00013845,"MEAN_MOTION_DOT":1.781e-5,"MEAN_MOTION_DDOT":0},{"OBJECT_NAME":"STARLINK-1676","OBJECT_ID":"2020-070AA","EPOCH":"2023-11-25T04:09:47.642976","MEAN_MOTION":15.06393998,"ECCENTRICITY":0.0002396,"INCLINATION":53.0548,"RA_OF_ASC_NODE":327.3894,"ARG_OF_PERICENTER":133.0905,"MEAN_ANOMALY":227.0285,"EPHEMERIS_TYPE":0,"CLASSIFICATION_TYPE":"U","NORAD_CAT_ID":46556,"ELEMENT_SET_NO":999,"REV_AT_EPOCH":17359,"BSTAR":5.5061e-5,"MEAN_MOTION_DOT":5.38e-6,"MEAN_MOTION_DDOT":0},{"OBJECT_NAME":"STARLINK-1679","OBJECT_ID":"2020-070AB","EPOCH":"2023-11-25T03:46:25.373568","MEAN_MOTION":15.06396397,"ECCENTRICITY":0.0002204,"INCLINATION":53.0542,"RA_OF_ASC_NODE":311.8373,"ARG_OF_PERICENTER":126.6159,"MEAN_ANOMALY":233.5033,"EPHEMERIS_TYPE":0,"CLASSIFICATION_TYPE":"U","NORAD_CAT_ID":46557,"ELEMENT_SET_NO":999,"REV_AT_EPOCH":17380,"BSTAR":0.00016393,"MEAN_MOTION_DOT":2.161e-5,"MEAN_MOTION_DDOT":0},{"OBJECT_NAME":"STARLINK-1680","OBJECT_ID":"2020-070AC","EPOCH":"2023-11-24T21:25:43.876416","MEAN_MOTION":15.06385395,"ECCENTRICITY":0.0001401,"INCLINATION":53.0538,"RA_OF_ASC_NODE":313.6574,"ARG_OF_PERICENTER":91.1652,"MEAN_ANOMALY":268.9497,"EPHEMERIS_TYPE":0,"CLASSIFICATION_TYPE":"U","NORAD_CAT_ID":46558,"ELEMENT_SET_NO":999,"REV_AT_EPOCH":17371,"BSTAR":-0.00032862,"MEAN_MOTION_DOT":-5.171e-5,"MEAN_MOTION_DDOT":0},{"OBJECT_NAME":"STARLINK-1681","OBJECT_ID":"2020-070AD","EPOCH":"2023-11-25T03:29:58.232832","MEAN_MOTION":15.06383681,"ECCENTRICITY":0.0001519,"INCLINATION":53.0535,"RA_OF_ASC_NODE":297.508,"ARG_OF_PERICENTER":90.7372,"MEAN_ANOMALY":269.3791,"EPHEMERIS_TYPE":0,"CLASSIFICATION_TYPE":"U","NORAD_CAT_ID":46559,"ELEMENT_SET_NO":999,"REV_AT_EPOCH":17399,"BSTAR":7.5064e-5,"MEAN_MOTION_DOT":8.36e-6,"MEAN_MOTION_DDOT":0},{"OBJECT_NAME":"STARLINK-1709","OBJECT_ID":"2020-070AF","EPOCH":"2023-11-25T02:58:47.382528","MEAN_MOTION":15.06396651,"ECCENTRICITY":0.0001798,"INCLINATION":53.0553,"RA_OF_ASC_NODE":312.6449,"ARG_OF_PERICENTER":91.3426,"MEAN_ANOMALY":268.7769,"EPHEMERIS_TYPE":0,"CLASSIFICATION_TYPE":"U","NORAD_CAT_ID":46561,"ELEMENT_SET_NO":999,"REV_AT_EPOCH":17378,"BSTAR":0.00018608,"MEAN_MOTION_DOT":2.491e-5,"MEAN_MOTION_DDOT":0},{"OBJECT_NAME":"STARLINK-1714","OBJECT_ID":"2020-070AG","EPOCH":"2023-11-25T02:56:46.862304","MEAN_MOTION":15.06386241,"ECCENTRICITY":0.0001623,"INCLINATION":53.0536,"RA_OF_ASC_NODE":307.6137,"ARG_OF_PERICENTER":109.5229,"MEAN_ANOMALY":250.5935,"EPHEMERIS_TYPE":0,"CLASSIFICATION_TYPE":"U","NORAD_CAT_ID":46562,"ELEMENT_SET_NO":999,"REV_AT_EPOCH":17354,"BSTAR":-3.1347e-5,"MEAN_MOTION_DOT":-7.48e-6,"MEAN_MOTION_DDOT":0}]
